ONEWEB-0490             
1 54113U 22138A   26175.10973336 -.00000086  00000+0 -24646-3 0  9993
2 54113  87.9182 303.5880 0001764 104.4020 255.7309 13.19724429177746
ONEWEB-0492             
1 54114U 22138B   26175.05918744  .00000043  00000+0  76175-4 0  9996
2 54114  87.9175 303.5990 0001936 107.4652 252.6692 13.19726634177747
ONEWEB-0495             
1 54115U 22138C   26175.11289169 -.00000065  00000+0 -19593-3 0  9992
2 54115  87.9179 303.5909 0001495 117.2866 242.8420 13.19725024177739
ONEWEB-0497             
1 54116U 22138D   26175.04971203 -.00000008  00000+0 -51640-4 0  9999
2 54116  87.9182 303.5959 0001854 102.3389 257.7951 13.19725107177717
ONEWEB-0499             
1 54117U 22138E   26175.10893120  .00000048  00000+0  88373-4 0  9993
2 54117  87.9178 303.5929 0001627 102.2450 257.8865 13.19727162177736
ONEWEB-0500             
1 54118U 22138F   26175.11131234 -.00000007  00000+0 -49336-4 0  9999
2 54118  87.9184 303.5871 0001944 100.6016 259.5336 13.19723863177749
ONEWEB-0501             
1 54119U 22138G   26175.06550999  .00000075  00000+0  15473-3 0  9994
2 54119  87.9183 303.5958 0001546 109.2050 250.9250 13.19724040177711
ONEWEB-0502             
1 54120U 22138H   26175.05128644 -.00000027  00000+0 -99200-4 0  9993
2 54120  87.9182 303.5875 0001660 100.4487 259.6833 13.19724505177735
ONEWEB-0503             
1 54121U 22138J   26175.11605011  .00000075  00000+0  15394-3 0  9991
2 54121  87.9187 303.5807 0001825  91.9806 268.1536 13.19725468177732
ONEWEB-0504             
1 54122U 22138K   26175.10341732  .00000015  00000+0  58415-5 0  9995
2 54122  87.9187 303.5881 0001633  99.8465 260.2852 13.19724834177741
ONEWEB-0505             
1 54123U 22138L   26175.10025340  .00000016  00000+0  78898-5 0  9998
2 54123  87.9182 303.5896 0001467 107.3362 252.7932 13.19726007177726
ONEWEB-0506             
1 54124U 22138M   26175.07498055  .00000109  00000+0  24092-3 0  9990
2 54124  87.9184 303.5918 0001605 105.9886 254.1424 13.19724464177719
ONEWEB-0507             
1 54125U 22138N   26175.09551899  .00000036  00000+0  57139-4 0  9997
2 54125  87.9175 303.5993 0001775 105.2764 254.8565 13.19725132177760
ONEWEB-0508             
1 54126U 22138P   26175.09235534  .00000032  00000+0  46400-4 0  9998
2 54126  87.9175 303.5994 0001709 112.8796 247.2517 13.19724323177740
ONEWEB-0509             
1 54127U 22138Q   26175.06707854  .00000078  00000+0  16348-3 0  9992
2 54127  87.9184 303.5944 0001747 103.0388 257.0940 13.19725660177718
ONEWEB-0510             
1 54128U 22138R   26174.57134088 -.00000098  00000+0 -27265-3 0  9995
2 54128  87.9196 273.1636 0002335  92.4309 267.7091 13.20772553180129
ONEWEB-0511             
1 54129U 22138S   26175.06392061  .00000211  00000+0  49377-3 0  9991
2 54129  87.9181 303.5977 0001664  93.3392 266.7931 13.19726484177742
ONEWEB-0512             
1 54130U 22138T   26175.05602304  .00000022  00000+0  23250-4 0  9999
2 54130  87.9172 303.6036 0001551 101.0830 259.0477 13.19725584177717
ONEWEB-0513             
1 54131U 22138U   26175.05881300  .00000047  00000+0  84712-4 0  9992
2 54131  87.9181 303.5464 0000937  91.1818 268.9422 13.20269373177624
ONEWEB-0514             
1 54132U 22138V   26175.07182104  .00000095  00000+0  20451-3 0  9993
2 54132  87.9182 303.5953 0002008  96.8853 263.2508 13.19725192177730
ONEWEB-0515             
1 54133U 22138W   26175.01242158  .00000006  00000+0 -17644-4 0  9998
2 54133  87.9200 273.0707 0002849 104.9627 255.1822 13.20770224180206
ONEWEB-0516             
1 54134U 22138X   26175.04654001  .00000007  00000+0 -15792-4 0  9999
2 54134  87.9172 303.6057 0001898 104.3281 255.8063 13.19725807177739
ONEWEB-0517             
1 54135U 22138Y   26175.10183262 -.00000042  00000+0 -13620-3 0  9990
2 54135  87.9182 303.5877 0001879  90.6873 269.4475 13.19724582177741
ONEWEB-0518             
1 54136U 22138Z   26175.12078429 -.00000058  00000+0 -17843-3 0  9999
2 54136  87.9176 303.5930 0001949 105.9416 254.1931 13.19727661177745
ONEWEB-0519             
1 54137U 22138AA  26175.07023973  .00000091  00000+0  19505-3 0  9990
2 54137  87.9181 303.5948 0001850  93.2873 266.8471 13.19727003177747
ONEWEB-0520             
1 54138U 22138AB  26175.10499659 -.00000048  00000+0 -15236-3 0  9994
2 54138  87.9185 303.5882 0001701 105.6835 254.4486 13.19724679177734
ONEWEB-0521             
1 54139U 22138AC  26175.06234120  .00000082  00000+0  17136-3 0  9997
2 54139  87.9185 303.5853 0001921  92.7631 267.3722 13.19725724177678
ONEWEB-0522             
1 54140U 22138AD  26175.11763174 -.00000097  00000+0 -27540-3 0  9999
2 54140  87.9185 303.5768 0001774 101.9068 258.2264 13.19724596177720
ONEWEB-0523             
1 54141U 22138AE  26174.99894868  .00000078  00000+0  15871-3 0  9991
2 54141  87.9202 273.0835 0002735  93.2057 266.9390 13.20771188180200
ONEWEB-0524             
1 54142U 22138AF  26175.21612070 -.00000275  00000+0 -70868-3 0  9999
2 54142  87.9188 273.0351 0002807 110.4124 249.7312 13.20773647180232
