OBJECT_NAME,OBJECT_ID,EPOCH,MEAN_MOTION,ECCENTRICITY,INCLINATION,RA_OF_ASC_NODE,ARG_OF_PERICENTER,MEAN_ANOMALY,EPHEMERIS_TYPE,CLASSIFICATION_TYPE,NORAD_CAT_ID,ELEMENT_SET_NO,REV_AT_EPOCH,BSTAR,MEAN_MOTION_DOT,MEAN_MOTION_DDOT
ONEWEB-0490,2022-138A,2026-06-24T02:38:00.962304,13.19724429,.00017648,87.9182,303.5880,104.4020,255.7309,0,U,54113,999,17774,-.24646061E-3,-.86E-6,0
ONEWEB-0492,2022-138B,2026-06-24T01:25:13.794816,13.19726634,.00019369,87.9175,303.5990,107.4652,252.6692,0,U,54114,999,17774,.7617472E-4,.43E-6,0
ONEWEB-0495,2022-138C,2026-06-24T02:42:33.842016,13.19725024,.00014954,87.9179,303.5909,117.2866,242.8420,0,U,54115,999,17773,-.19592577E-3,-.65E-6,0
ONEWEB-0497,2022-138D,2026-06-24T01:11:35.119392,13.19725107,.00018542,87.9182,303.5959,102.3389,257.7951,0,U,54116,999,17771,-.51639562E-4,-.8E-7,0
ONEWEB-0499,2022-138E,2026-06-24T02:36:51.655680,13.19727162,.00016274,87.9178,303.5929,102.2450,257.8865,0,U,54117,999,17773,.88372511E-4,.48E-6,0
ONEWEB-0500,2022-138F,2026-06-24T02:40:17.386176,13.19723863,.00019447,87.9184,303.5871,100.6016,259.5336,0,U,54118,999,17774,-.49336229E-4,-.7E-7,0
ONEWEB-0501,2022-138G,2026-06-24T01:34:20.063136,13.19724040,.00015465,87.9183,303.5958,109.2050,250.9250,0,U,54119,999,17771,.15473034E-3,.75E-6,0
ONEWEB-0502,2022-138H,2026-06-24T01:13:51.148416,13.19724505,.00016605,87.9182,303.5875,100.4487,259.6833,0,U,54120,999,17773,-.99199674E-4,-.27E-6,0
ONEWEB-0503,2022-138J,2026-06-24T02:47:06.729504,13.19725468,.00018252,87.9187,303.5807,91.9806,268.1536,0,U,54121,999,17773,.15394474E-3,.75E-6,0
ONEWEB-0504,2022-138K,2026-06-24T02:28:55.256448,13.19724834,.00016335,87.9187,303.5881,99.8465,260.2852,0,U,54122,999,17774,.5841507E-5,.15E-6,0
ONEWEB-0505,2022-138L,2026-06-24T02:24:21.893760,13.19726007,.00014672,87.9182,303.5896,107.3362,252.7932,0,U,54123,999,17772,.7889756E-5,.16E-6,0
ONEWEB-0506,2022-138M,2026-06-24T01:47:58.319520,13.19724464,.00016051,87.9184,303.5918,105.9886,254.1424,0,U,54124,999,17771,.24091894E-3,.109E-5,0
ONEWEB-0507,2022-138N,2026-06-24T02:17:32.840736,13.19725132,.00017754,87.9175,303.5993,105.2764,254.8565,0,U,54125,999,17776,.57138622E-4,.36E-6,0
ONEWEB-0508,2022-138P,2026-06-24T02:12:59.501376,13.19724323,.00017098,87.9175,303.5994,112.8796,247.2517,0,U,54126,999,17774,.46399883E-4,.32E-6,0
ONEWEB-0509,2022-138Q,2026-06-24T01:36:35.585856,13.19725660,.00017472,87.9184,303.5944,103.0388,257.0940,0,U,54127,999,17771,.16348397E-3,.78E-6,0
ONEWEB-0510,2022-138R,2026-06-23T13:42:43.852032,13.20772553,.00023352,87.9196,273.1636,92.4309,267.7091,0,U,54128,999,18012,-.27264802E-3,-.98E-6,0
ONEWEB-0511,2022-138S,2026-06-24T01:32:02.740704,13.19726484,.00016643,87.9181,303.5977,93.3392,266.7931,0,U,54129,999,17774,.49376751E-3,.211E-5,0
ONEWEB-0512,2022-138T,2026-06-24T01:20:40.390656,13.19725584,.00015512,87.9172,303.6036,101.0830,259.0477,0,U,54130,999,17771,.23250469E-4,.22E-6,0
ONEWEB-0513,2022-138U,2026-06-24T01:24:41.443200,13.20269373,.00009378,87.9181,303.5464,91.1818,268.9422,0,U,54131,999,17762,.84711965E-4,.47E-6,0
ONEWEB-0514,2022-138V,2026-06-24T01:43:25.337856,13.19725192,.00020082,87.9182,303.5953,96.8853,263.2508,0,U,54132,999,17773,.2045068E-3,.95E-6,0
ONEWEB-0515,2022-138W,2026-06-24T00:17:53.224512,13.20770224,.00028492,87.9200,273.0707,104.9627,255.1822,0,U,54133,999,18020,-.17644232E-4,.6E-7,0
ONEWEB-0516,2022-138X,2026-06-24T01:07:01.056864,13.19725807,.00018981,87.9172,303.6057,104.3281,255.8063,0,U,54134,999,17773,-.15791671E-4,.7E-7,0
ONEWEB-0517,2022-138Y,2026-06-24T02:26:38.338368,13.19724582,.00018791,87.9182,303.5877,90.6873,269.4475,0,U,54135,999,17774,-.13619723E-3,-.42E-6,0
ONEWEB-0518,2022-138Z,2026-06-24T02:53:55.762656,13.19727661,.00019492,87.9176,303.5930,105.9416,254.1931,0,U,54136,999,17774,-.17843293E-3,-.58E-6,0
ONEWEB-0519,2022-138AA,2026-06-24T01:41:08.712672,13.19727003,.000185,87.9181,303.5948,93.2873,266.8471,0,U,54137,999,17774,.19504534E-3,.91E-6,0
ONEWEB-0520,2022-138AB,2026-06-24T02:31:11.705376,13.19724679,.00017017,87.9185,303.5882,105.6835,254.4486,0,U,54138,999,17773,-.15236101E-3,-.48E-6,0
ONEWEB-0521,2022-138AC,2026-06-24T01:29:46.279680,13.19725724,.00019219,87.9185,303.5853,92.7631,267.3722,0,U,54139,999,17767,.17135848E-3,.82E-6,0
ONEWEB-0522,2022-138AD,2026-06-24T02:49:23.382336,13.19724596,.00017746,87.9185,303.5768,101.9068,258.2264,0,U,54140,999,17772,-.27540366E-3,-.97E-6,0
ONEWEB-0523,2022-138AE,2026-06-23T23:58:29.165952,13.20771188,.00027359,87.9202,273.0835,93.2057,266.9390,0,U,54141,999,18020,.15871391E-3,.78E-6,0
ONEWEB-0524,2022-138AF,2026-06-24T05:11:12.828480,13.20773647,.00028079,87.9188,273.0351,110.4124,249.7312,0,U,54142,999,18023,-.70867627E-3,-.275E-5,0
